{
  "type": "FeatureCollection",
  "features": [
    {
      "type": "Feature",
      "properties": {
        "norad_id": 66946,
        "name": "STARLINK-36115",
        "group": "last-30-days",
        "lat": -50.793027395515054,
        "lon": -54.49879400498933,
        "alt_km": 344.37500869123323,
        "timestamp": "2025-12-20T07:33:49.515902+00:00",
        "meta_object_name": "STARLINK-36115",
        "meta_object_id": "2025-286X",
        "meta_epoch": "2025-12-19T22:00:01.999584",
        "meta_mean_motion": 15.78266948,
        "meta_eccentricity": 9.989e-05,
        "meta_inclination": 53.1547,
        "meta_ra_of_asc_node": 14.3007,
        "meta_arg_of_pericenter": 84.5476,
        "meta_mean_anomaly": 95.5326,
        "meta_ephemeris_type": 0,
        "meta_classification_type": "U",
        "meta_norad_cat_id": 66946,
        "meta_element_set_no": 999,
        "meta_rev_at_epoch": 314,
        "meta_bstar": -0.0096456582,
        "meta_mean_motion_dot": -0.01490884,
        "meta_mean_motion_ddot": 0,
        "tle_line1": "1 66946U 25286X   25353.91668981 -.01490884  00000+0 -96457-2 0  9998",
        "tle_line2": "2 66946  53.1547  14.3007 0000998  84.5476  95.5326 15.78266948  3147"
      },
      "geometry": {
        "type": "Point",
        "coordinates": [
          -54.49879400498933,
          -50.793027395515054
        ]
      }
    },
    {
      "type": "Feature",
      "properties": {
        "norad_id": 66947,
        "name": "STARLINK-36089",
        "group": "last-30-days",
        "lat": -49.31596868504482,
        "lon": -48.42387546491204,
        "alt_km": 344.7119026793116,
        "timestamp": "2025-12-20T07:33:49.515912+00:00",
        "meta_object_name": "STARLINK-36089",
        "meta_object_id": "2025-286Y",
        "meta_epoch": "2025-12-19T22:00:01.999584",
        "meta_mean_motion": 15.78182043,
        "meta_eccentricity": 0.00011012,
        "meta_inclination": 53.1547,
        "meta_ra_of_asc_node": 14.2917,
        "meta_arg_of_pericenter": 88.7049,
        "meta_mean_anomaly": 95.6891,
        "meta_ephemeris_type": 0,
        "meta_classification_type": "U",
        "meta_norad_cat_id": 66947,
        "meta_element_set_no": 999,
        "meta_rev_at_epoch": 314,
        "meta_bstar": -0.0097911508,
        "meta_mean_motion_dot": -0.01505592,
        "meta_mean_motion_ddot": 0,
        "tle_line1": "1 66947U 25286Y   25353.91668981 -.01505592  00000+0 -97912-2 0  9999",
        "tle_line2": "2 66947  53.1547  14.2917 0001101  88.7049  95.6891 15.78182043  3147"
      },
      "geometry": {
        "type": "Point",
        "coordinates": [
          -48.42387546491204,
          -49.31596868504482
        ]
      }
    },
    {
      "type": "Feature",
      "properties": {
        "norad_id": 66948,
        "name": "STARLINK-36116",
        "group": "last-30-days",
        "lat": -50.06215767635095,
        "lon": -51.282816269914115,
        "alt_km": 344.6398463855094,
        "timestamp": "2025-12-20T07:33:49.515921+00:00",
        "meta_object_name": "STARLINK-36116",
        "meta_object_id": "2025-286Z",
        "meta_epoch": "2025-12-19T22:00:01.999584",
        "meta_mean_motion": 15.78203492,
        "meta_eccentricity": 0.00010139,
        "meta_inclination": 53.1547,
        "meta_ra_of_asc_node": 14.2961,
        "meta_arg_of_pericenter": 93.1757,
        "meta_mean_anomaly": 89.1868,
        "meta_ephemeris_type": 0,
        "meta_classification_type": "U",
        "meta_norad_cat_id": 66948,
        "meta_element_set_no": 999,
        "meta_rev_at_epoch": 314,
        "meta_bstar": -0.0097949447,
        "meta_mean_motion_dot": -0.01507336,
        "meta_mean_motion_ddot": 0,
        "tle_line1": "1 66948U 25286Z   25353.91668981 -.01507336  00000+0 -97949-2 0  9998",
        "tle_line2": "2 66948  53.1547  14.2961 0001013  93.1757  89.1868 15.78203492  3149"
      },
      "geometry": {
        "type": "Point",
        "coordinates": [
          -51.282816269914115,
          -50.06215767635095
        ]
      }
    },
    {
      "type": "Feature",
      "properties": {
        "norad_id": 66949,
        "name": "STARLINK-36096",
        "group": "last-30-days",
        "lat": -48.493825682994796,
        "lon": -45.62979766785246,
        "alt_km": 344.71236905203205,
        "timestamp": "2025-12-20T07:33:49.515936+00:00",
        "meta_object_name": "STARLINK-36096",
        "meta_object_id": "2025-286AA",
        "meta_epoch": "2025-12-19T22:00:01.999584",
        "meta_mean_motion": 15.78162396,
        "meta_eccentricity": 0.00010051,
        "meta_inclination": 53.1548,
        "meta_ra_of_asc_node": 14.2876,
        "meta_arg_of_pericenter": 93.0223,
        "meta_mean_anomaly": 93.4241,
        "meta_ephemeris_type": 0,
        "meta_classification_type": "U",
        "meta_norad_cat_id": 66949,
        "meta_element_set_no": 999,
        "meta_rev_at_epoch": 314,
        "meta_bstar": -0.0098698897,
        "meta_mean_motion_dot": -0.01514967,
        "meta_mean_motion_ddot": 0,
        "tle_line1": "1 66949U 25286AA  25353.91668981 -.01514967  00000+0 -98699-2 0  9990",
        "tle_line2": "2 66949  53.1548  14.2876 0001005  93.0223  93.4241 15.78162396  3144"
      },
      "geometry": {
        "type": "Point",
        "coordinates": [
          -45.62979766785246,
          -48.493825682994796
        ]
      }
    },
    {
      "type": "Feature",
      "properties": {
        "norad_id": 66950,
        "name": "STARLINK-36111",
        "group": "last-30-days",
        "lat": -46.63721777052693,
        "lon": -40.26997955942558,
        "alt_km": 344.9333607614517,
        "timestamp": "2025-12-20T07:33:49.515947+00:00",
        "meta_object_name": "STARLINK-36111",
        "meta_object_id": "2025-286AB",
        "meta_epoch": "2025-12-19T22:00:01.999584",
        "meta_mean_motion": 15.78101821,
        "meta_eccentricity": 0.0001221,
        "meta_inclination": 53.1548,
        "meta_ra_of_asc_node": 14.2789,
        "meta_arg_of_pericenter": 84.076,
        "meta_mean_anomaly": 106.5455,
        "meta_ephemeris_type": 0,
        "meta_classification_type": "U",
        "meta_norad_cat_id": 66950,
        "meta_element_set_no": 999,
        "meta_rev_at_epoch": 314,
        "meta_bstar": -0.0099856502,
        "meta_mean_motion_dot": -0.01526999,
        "meta_mean_motion_ddot": 0,
        "tle_line1": "1 66950U 25286AB  25353.91668981 -.01526999  00000+0 -99857-2 0  9997",
        "tle_line2": "2 66950  53.1548  14.2789 0001221  84.0760 106.5455 15.78101821  3144"
      },
      "geometry": {
        "type": "Point",
        "coordinates": [
          -40.26997955942558,
          -46.63721777052693
        ]
      }
    },
    {
      "type": "Feature",
      "properties": {
        "norad_id": 66951,
        "name": "STARLINK-35999",
        "group": "last-30-days",
        "lat": -45.60134416033277,
        "lon": -37.689353064828914,
        "alt_km": 345.01828402002684,
        "timestamp": "2025-12-20T07:33:49.515959+00:00",
        "meta_object_name": "STARLINK-35999",
        "meta_object_id": "2025-286AC",
        "meta_epoch": "2025-12-19T22:00:01.999584",
        "meta_mean_motion": 15.78061917,
        "meta_eccentricity": 0.00012514,
        "meta_inclination": 53.155,
        "meta_ra_of_asc_node": 14.2744,
        "meta_arg_of_pericenter": 81.3894,
        "meta_mean_anomaly": 111.3694,
        "meta_ephemeris_type": 0,
        "meta_classification_type": "U",
        "meta_norad_cat_id": 66951,
        "meta_element_set_no": 999,
        "meta_rev_at_epoch": 314,
        "meta_bstar": -0.010064137,
        "meta_mean_motion_dot": -0.01535092,
        "meta_mean_motion_ddot": 0,
        "tle_line1": "1 66951U 25286AC  25353.91668981 -.01535092  00000+0 -10064-1 0  9994",
        "tle_line2": "2 66951  53.1550  14.2744 0001251  81.3894 111.3694 15.78061917  3140"
      },
      "geometry": {
        "type": "Point",
        "coordinates": [
          -37.689353064828914,
          -45.60134416033277
        ]
      }
    },
    {
      "type": "Feature",
      "properties": {
        "norad_id": 66952,
        "name": "STARLINK-36122",
        "group": "last-30-days",
        "lat": -47.59253727047653,
        "lon": -42.889710401812934,
        "alt_km": 344.87629870279306,
        "timestamp": "2025-12-20T07:33:49.515970+00:00",
        "meta_object_name": "STARLINK-36122",
        "meta_object_id": "2025-286AD",
        "meta_epoch": "2025-12-19T22:00:01.999584",
        "meta_mean_motion": 15.78128096,
        "meta_eccentricity": 0.00012231,
        "meta_inclination": 53.1548,
        "meta_ra_of_asc_node": 14.2834,
        "meta_arg_of_pericenter": 81.373,
        "meta_mean_anomaly": 107.1788,
        "meta_ephemeris_type": 0,
        "meta_classification_type": "U",
        "meta_norad_cat_id": 66952,
        "meta_element_set_no": 999,
        "meta_rev_at_epoch": 314,
        "meta_bstar": -0.0099388238,
        "meta_mean_motion_dot": -0.01522312,
        "meta_mean_motion_ddot": 0,
        "tle_line1": "1 66952U 25286AD  25353.91668981 -.01522312  00000+0 -99388-2 0  9993",
        "tle_line2": "2 66952  53.1548  14.2834 0001223  81.3730 107.1788 15.78128096  3145"
      },
      "geometry": {
        "type": "Point",
        "coordinates": [
          -42.889710401812934,
          -47.59253727047653
        ]
      }
    }
  ]
}